BEIJING 1               
1 28890U 05043A   19136.39559347  .00000030  00000-0  15188-4 0  9994
2 28890  97.9746 273.1283 0016384 111.4531 248.8427 14.61256926722384
HJ-1A                   
1 33320U 08041A   19136.34060819  .00000709  00000-0  10727-3 0  9991
2 33320  97.8404 195.6822 0024358 288.5925  71.2636 14.77016656575835
HJ-1B                   
1 33321U 08041B   19136.30390592 -.00000172  00000-0 -16750-4 0  9991
2 33321  97.8476 197.4848 0033562 308.6267  51.1957 14.77125962575826
YAOGAN 4                
1 33446U 08061A   19136.33255984  .00000095  00000-0  20326-4 0  9995
2 33446  97.6718 105.1120 0015883 187.3107 172.7875 14.76950903563063
DEIMOS-1                
1 35681U 09041A   19136.37403051 -.00000100  00000-0 -83937-5 0  9998
2 35681  97.8677  19.3517 0000483 166.0725 194.0481 14.71783586525837
UK-DMC 2                
1 35683U 09041C   19136.35056307  .00000054  00000-0  16297-4 0  9996
2 35683  97.7429 354.6078 0001443  78.8431 281.2929 14.71077190525643
RISAT 1                 
1 38248U 12017A   19136.10150535  .00000661  00000-0  44832-4 0  9994
2 38248  97.5707 145.1725 0004842 151.2277 208.9220 15.09801287388520
DMC3-FM1                
1 40715U 15032A   19136.29947541 -.00000189  00000-0 -21227-4 0  9997
2 40715  97.9728  32.7425 0017325  63.2122 297.0817 14.73695172207017
DMC3-FM2                
1 40716U 15032B   19136.32191480 -.00000638  00000-0 -90080-4 0  9997
2 40716  97.9765  33.0057 0014605  72.1774 288.1006 14.73670610207026
DMC3-FM3                
1 40717U 15032C   19136.34490604  .00000049  00000-0  15193-4 0  9996
2 40717  97.9752  33.7172 0018036  64.8184 295.4849 14.73694722207029
